1 45580U 20025BB  24286.13384123  .00018022  00000+0  12259-2 0  9991
2 45580  53.0527 232.0604 0001730  94.2390 265.8796 15.06392326247374
STARLINK-1335           
1 45581U 20025BC  24286.13844680  .00019313  00000+0  13122-2 0  9995
2 45581  53.0530 222.0371 0001321 107.0230 253.0904 15.06391689247507
STARLINK-1337           
1 45582U 20025BD  24286.09421726  .00004354  00000+0  31109-3 0  9998
2 45582  53.0548 222.2354 0002049 107.2588 252.8625 15.06388789247498
STARLINK-1347           
1 45586U 20025BH  24285.82145182  .00001317  00000+0  10733-3 0  9997
2 45586  53.0540 223.4640 0001952  93.3322 266.7890 15.06389495247446
STARLINK-1349           
1 45587U 20025BJ  24286.12370471  .00001895  00000+0  14619-3 0  9991
2 45587  53.0540 222.1079 0001756 106.4455 253.6727 15.06375439247508
STARLINK-1360           
1 45588U 20025BK  24285.82454793  .00021192  00000+0  13985-2 0  9994
2 45588  53.0526 223.3394 0002336  83.3406 276.7849 15.07415348247450
STARLINK-1364           
1 45589U 20025BL  24286.09788832  .00008602  00000+0  59548-3 0  9996
2 45589  53.0544 222.2209 0001792 106.4511 253.6675 15.06411969247492
STARLINK-1365           
1 45590U 20025BM  24286.11356146  .00013951  00000+0  95398-3 0  9996
2 45590  53.0528 252.1525 0001374  94.4806 265.6340 15.06386423247081
STARLINK-1443           
1 45660U 20035D   24286.16517579  .00032781  00000+0  22103-2 0  9994
2 45660  53.0534 211.9232 0001635  95.7242 264.3934 15.06385083240924
STARLINK-1444           
1 45661U 20035E   24286.19405294  .00055891  00000+0  16336-2 0  9996
2 45661  53.0619 186.8429 0009171  92.7981 267.4070 15.34734378241277
STARLINK-1445           
1 45662U 20035F   24285.91667824  .00874394  00000+0  39478-1 0  9993
2 45662  53.0531 212.5537 0001190  90.0270  70.5024 15.17968183  5840
STARLINK-1446           
1 45663U 20035G   24286.17438897  .00015675  00000+0  97064-3 0  9995
2 45663  53.0528 210.8939 0003958  79.1584 280.9852 15.09955870240931
STARLINK-1448           
1 45665U 20035J   24286.10250088  .00005952  00000+0  41828-3 0  9998
2 45665  53.0534 212.2069 0002046 107.8394 252.2819 15.06384562240919
STARLINK-1449           
1 45666U 20035K   24286.20156134  .00047144  00000+0  14877-2 0  9999
2 45666  53.0420 186.8304 0009484 103.5832 256.6225 15.32376325241282
STARLINK-1451           
1 45668U 20035M   24285.84084373 -.00003744  00000+0 -23275-3 0  9998
2 45668  53.0536 213.6965 0001752 114.3242 245.7930 15.06376265240879
STARLINK-1452           
1 45669U 20035N   24286.12462004  .00007094  00000+0  49467-3 0  9993
2 45669  53.0525 212.1020 0001548  89.9193 270.1973 15.06400787240909
STARLINK-1453           
1 45670U 20035P   24285.98362998 -.00002521  00000+0 -15049-3 0  9990
2 45670  53.0536 182.7343 0001573  91.0415 269.0754 15.06386221241318
STARLINK-1454           
1 45671U 20035Q   24286.19464953  .00011397  00000+0  78243-3 0  9993
2 45671  53.0538 211.7856 0001697  89.5162 270.6021 15.06416241240928
STARLINK-1456           
1 45673U 20035S   24285.81130773 -.00009114  00000+0 -59403-3 0  9996
2 45673  53.0538 213.5094 0002241  89.3787 270.7459 15.06379302241283
STARLINK-1457           
1 45674U 20035T   24286.08407896  .00004800  00000+0  34099-3 0  9999
2 45674  53.0524 212.2843 0001425  81.6613 278.4538 15.06391961240921
STARLINK-1458           
1 45675U 20035U   24286.07300894  .00020024  00000+0  13612-2 0  9992
2 45675  53.0524 212.3359 0000863  66.8570 293.2510 15.06349964240906
STARLINK-1460           
1 45676U 20035V   24285.84449357  .00000754  00000+0  69538-4 0  9993
2 45676  53.0536 213.3570 0001585 105.3965 254.7199 15.06379399240871
STARLINK-1392           
1 45677U 20035W   24285.52380959  .00002803  00000+0  20707-3 0  9992
2 45677  53.0522 214.8006 0001555  90.1107 270.0060 15.06391089241232
STARLINK-1393           
1 45678U 20035X   24286.18081431  .00065398  00000+0  43713-2 0  9998
2 45678  53.0527 201.8510 0001420  89.2651 270.8501 15.06379137241067
STARLINK-1394           
1 45679U 20035Y   24286.18451462  .00029185  00000+0  19693-2 0  9998
2 45679  53.0530 201.8326 0001573 100.0428 260.0738 15.06415218241075
STARLINK-1395           
1 45680U 20035Z   24286.05920248  .00010853  00000+0  74631-3 0  9995
2 45680  53.0536 202.3933 0001402  94.0672 266.0477 15.06402170241043
STARLINK-1397           
1 45682U 20035AB  24286.06288174  .00035297  00000+0  23801-2 0  9994
2 45682  53.0539 202.3805 0001337  90.2022 269.9120 15.06346207241045
STARLINK-1399           
1 45683U 20035AC  24286.04445382  .00037121  00000+0  24958-2 0  9991
2 45683  53.0529 202.4621 0001935  93.5131 266.6079 15.06430812241046
STARLINK-1401           
1 45684U 20035AD  24286.25001157  .00131613  00000+0  21522-2 0  9998
2 45684  53.0465 135.1864 0006940 104.1515 253.7128 15.51584957242024
STARLINK-1402           
1 45685U 20035AE  24286.14894633  .00004874  00000+0  34590-3 0  9994
2 45685  53.0534 196.4155 0001658  92.7545 267.3633 15.06396848241145
STARLINK-1404           
1 45686U 20035AF  24286.14397286  .00024233  00000+0  16402-2 0  9999
2 45686  53.0544 202.0189 0001529  97.7615 262.3548 15.06398645241066
STARLINK-1408           
1 45688U 20035AH  24285.77492166  .00095030  00000+0  14817-2 0  9993
2 45688  53.0737 104.4986 0006343 239.8589 120.1792 15.53081881242842
STARLINK-1413           
1 45689U 20035AJ  24286.16239624 -.00012525  00000+0 -82422-3 0  9994
2 45689  53.0543 201.9333 0001407  97.5009 262.6140 15.06364538241062
STARLINK-1414           
1 45690U 20035AK  24286.18823535  .00017321  00000+0  11788-2 0  9991
2 45690  53.0536 202.0391 0001407  79.9449 280.1698 15.06401864241005
STARLINK-1417           
1 45693U 20035AN  24286.15871312  .00003730  00000+0  26915-3 0  9995
2 45693  53.0525 201.9479 0001370  99.1098 261.0046 15.06398513241061
STARLINK-1420           
1 45695U 20035AQ  24286.22594976  .00005275  00000+0  37263-3 0  9997
2 45695  53.0530 181.6412 0001169 114.6651 245.4459 15.06413969241353
STARLINK-1422           
1 45696U 20035AR  24286.03707686  .00015430  00000+0  10528-2 0  9999
2 45696  53.0525 202.4927 0001289 103.2794 256.8339 15.06389517241046
STARLINK-1351           
1 45697U 20035AS  24286.01310057 -.00004928  00000+0 -31225-3 0  9990
2 45697  53.0543 182.6032 0001469  76.8627 283.2525 15.06392474241321
STARLINK-1398           
1 45699U 20035AU  24286.12370529  .00023861  00000+0  16155-2 0  9993
2 45699  53.0530 182.1059 0001841  93.7814 266.3385 15.06396579241385
STARLINK-1400           
1 45700U 20035AV  24286.12001476  .00002465  00000+0  18434-3 0  9998
2 45700  53.0542 182.1211 0001716  93.9359 266.1827 15.06394162241338
STARLINK-1403           
1 45701U 20035AW  24286.21583510  .00028117  00000+0  18998-2 0  9999
2 45701  53.0544 181.6952 0001498 107.1647 252.9506 15.06384216241350
STARLINK-1405           
1 45702U 20035AX  24286.13105298  .00043603  00000+0  29281-2 0  9998
2 45702  53.0525 182.0735 0001299  83.4939 276.6197 15.06400286241730
STARLINK-1407           
1 45703U 20035AY  24286.12737947  .00007807  00000+0  54225-3 0  9993
2 45703  53.0529 182.0856 0001733  93.4260 266.6927 15.06412283241336
STARLINK-1411           
1 45706U 20035BB  24286.10526146  .00026779  00000+0  18089-2 0  9997
2 45706  53.0525 182.1891 0001187  82.8710 277.2414 15.06419192241335
STARLINK-1412           
1 45707U 20035BC  24286.09693133  .00014964  00000+0  10205-2 0  9992
2 45707  53.0530 182.1814 0001428  79.0736 281.0414 15.06429990241331
STARLINK-1418           
1 45708U 20035BD  24285.87673755  .00010742  00000+0  73887-3 0  9992
2 45708  53.0543 183.2118 0001937 113.8103 246.3089 15.06404207241308
STARLINK-1423           
1 45710U 20035BF  24286.04259299  .00046911  00000+0  31472-2 0  9998
2 45710  53.0528 182.4708 0000764  80.2663 279.8412 15.06401443241327
STARLINK-1433           
1 45711U 20035BG  24286.15686218  .00008476  00000+0  58700-3 0  9994
2 45711  53.0538 181.9555 0001626  92.2523 267.8652 15.06415509241342
STARLINK-1434           
1 45712U 20035BH  24286.21950922  .00055552  00000+0  37140-2 0  9999
2 45712  53.0525 181.6760 0001639  95.2039 264.9137 15.06450348241350
STARLINK-1465           
1 45731U 20038B   24285.99098514  .00012736  00000+0  87193-3 0  9998
2 45731  53.0543  22.6997 0002039  75.1799 284.9416 15.06416868239732
STARLINK-1467           
1 45733U 20038D   24286.25001157  .00257643  00000+0  17512-2 0  9992
2 45733  53.0596 274.2356 0008844  46.8790 137.3780 15.73595334241459
STARLINK-1468           
1 45734U 20038E   24286.25001157  .00088425  00000+0  10456-2 0  9993
2 45734  53.0646 297.9682 0009769 354.5056  66.5170 15.60519363241114
STARLINK-1471           
1 45735U 20038F   24286.00574558  .00010299  00000+0  70940-3 0  9996
2 45735  53.0548  22.6358 0002110  78.7100 281.4126 15.06395750239889
STARLINK-1474           
1 45738U 20038J   24285.99467221  .00005190  00000+0  36704-3 0  9998
2 45738  53.0542  22.6832 0001544 103.2341 256.8820 15.06400798239880
STARLINK-1475           
1 45739U 20038K   24286.14028303  .00046088  00000+0  20273-2 0  9995
2 45739  53.0552 332.9397 0005171  19.7427 340.3768 15.21437421240434
STARLINK-1479           
1 45740U 20038L   24285.60396664  .00022114  00000+0  14975-2 0  9991
2 45740  53.0542  24.4370 0001339  91.2322 268.8821 15.06433414238702
STARLINK-1480           
1 45741U 20038M   24285.97255459 -.00005843  00000+0 -37369-3 0  9993
2 45741  53.0551  22.7840 0002146  82.1751 277.9482 15.06398715239886
STARLINK-1481           
1 45742U 20038N   24286.23058215 -.00021182  00000+0 -14089-2 0  9992
2 45742  53.0554  21.6246 0001565  88.5671 271.5497 15.06359457239913
STARLINK-1483           
1 45743U 20038P   24286.25001157  .00184986  00000+0  20763-2 0  9994
2 45743  53.0431 326.0099 0006196 328.5733 269.4613 15.61518413240555
STARLINK-1500           
1 45744U 20038Q   24285.55603776  .00013843  00000+0  94547-3 0  9997
